STARLINK-2501           
1 48330U 21036BG  25338.80537098  .00001653  00000+0  12984-3 0  9992
2 48330  53.0527 167.5698 0001407  88.3354 271.7796 15.06399693253737
STARLINK-2514           
1 48331U 21036BH  25338.80168754  .00002008  00000+0  15361-3 0  9999
2 48331  53.0517 167.5832 0001113 105.7787 254.3325 15.06409595253733
STARLINK-2511           
1 48332U 21036BJ  25339.33336806  .00286457  00000+0  15385-2 0  9991
2 48332  53.0505 150.7252 0001598 309.1770 190.1508 15.78910172  5855
STARLINK-2518           
1 48333U 21036BK  25339.25872092  .00002905  00000+0  21371-3 0  9992
2 48333  53.0537 165.5349 0001297  97.5012 262.6124 15.06421486253800
STARLINK-2470           
1 48334U 21036BL  25339.25505330  .00003864  00000+0  27808-3 0  9997
2 48334  53.0510 165.5495 0001362  89.3252 270.7893 15.06410280253805
YAOGAN-34 01            
1 48340U 21037A   25339.28620663 -.00000009  00000+0  13451-3 0  9993
2 48340  63.4041 284.4474 0070625 355.7084   4.3329 13.45435020225911
STARLINK-2613           
1 48353U 21038A   25339.25689871 -.00001679  00000+0 -93884-4 0  9995
2 48353  53.0542  65.5469 0001320  75.9744 284.1392 15.06389629252794
STARLINK-2674           
1 48354U 21038B   25339.25321133  .00003188  00000+0  23287-3 0  9994
2 48354  53.0553  65.5640 0001504  87.6490 272.4671 15.06395075252792
STARLINK-2635           
1 48355U 21038C   25338.51970169  .00004197  00000+0  30042-3 0  9990
2 48355  53.0544  68.8516 0001397  96.6366 263.4782 15.06405916252680
STARLINK-2637           
1 48356U 21038D   25338.64871461  .00004227  00000+0  30249-3 0  9993
2 48356  53.0561  68.2762 0001510  83.5131 276.6030 15.06404530252705
STARLINK-2636           
1 48357U 21038E   25339.28275340 -.00002695  00000+0 -16215-3 0  9995
2 48357  53.0542  65.8519 0001150  90.8984 269.2137 15.06388451252793
STARLINK-2624           
1 48358U 21038F   25339.23847168 -.00001666  00000+0 -92978-4 0  9992
2 48358  53.0564  65.6282 0001357  94.8204 265.2940 15.06389354252781
STARLINK-2628           
1 48359U 21038G   25338.57131079  .00003431  00000+0  24910-3 0  9996
2 48359  53.0556  68.6234 0001553  96.4112 263.7054 15.06405112252686
STARLINK-2622           
1 48360U 21038H   25338.76665203  .00003223  00000+0  23512-3 0  9996
2 48360  53.0563  67.7411 0001264  95.2822 264.8311 15.06408515252719
STARLINK-2591           
1 48361U 21038J   25339.22741914 -.00001319  00000+0 -69656-4 0  9999
2 48361  53.0578  65.6741 0001711  85.3756 274.7428 15.06392145252789
STARLINK-2578           
1 48362U 21038K   25339.26057521 -.00002530  00000+0 -15093-3 0  9999
2 48362  53.0543  65.6101 0001743 110.1940 249.9237 15.06421235252795
STARLINK-2626           
1 48363U 21038L   25339.33336806  .00315214  00000+0  16679-2 0  9998
2 48363  53.0463 337.3555 0010190  46.5771 110.7207 15.79103968  5977
STARLINK-2611           
1 48364U 21038M   25338.61786242  .00003241  00000+0  23634-3 0  9996
2 48364  53.0560  63.5738 0001500  86.9789 273.1372 15.06401103252769
STARLINK-2608           
1 48365U 21038N   25338.64732902  .00029153  00000+0  19672-2 0  9990
2 48365  53.0552  63.2793 0001530  94.7321 265.3843 15.06414850252771
STARLINK-2643           
1 48367U 21038Q   25339.22833457 -.00011220  00000+0 -73621-3 0  9997
2 48367  53.0585  55.6722 0000781  79.1323 280.9754 15.06368014252923
STARLINK-2623           
1 48368U 21038R   25338.60911723  .00030700  00000+0  20681-2 0  9991
2 48368  53.0557  58.7300 0001502  93.4983 266.6178 15.06451416252832
STARLINK-2621           
1 48370U 21038T   25339.22098151  .00004624  00000+0  32940-3 0  9992
2 48370  53.0549  55.7084 0001734  93.1240 266.9947 15.06368975252926
STARLINK-2589           
1 48371U 21038U   25338.48745644  .00001616  00000+0  12740-3 0  9990
2 48371  53.0552  58.9977 0001411  87.5690 272.5460 15.06392521252810
STARLINK-2609           
1 48373U 21038W   25339.20990445  .00013952  00000+0  95358-3 0  9996
2 48373  53.0547  55.7543 0001444  93.2605 266.8549 15.06403880252923
STARLINK-2604           
1 48374U 21038X   25339.23943217  .00003852  00000+0  27732-3 0  9994
2 48374  53.0542  55.9726 0000802  78.0765 282.0314 15.06398837252924
STARLINK-2603           
1 48375U 21038Y   25339.20252280  .00010755  00000+0  73994-3 0  9996
2 48375  53.0554  55.7872 0002079  85.9585 274.1641 15.06394867252927
STARLINK-2610           
1 48376U 21038Z   25338.60171895  .00025664  00000+0  17333-2 0  9991
2 48376  53.0557  58.4817 0001407  87.1947 272.9203 15.06448406252839
STARLINK-2499           
1 48377U 21038AA  25339.24313971 -.00006979  00000+0 -45033-3 0  9995
2 48377  53.0554  56.1083 0000947  85.5029 274.6068 15.06383623252925
STARLINK-2526           
1 48378U 21038AB  25339.25782613 -.00000572  00000+0 -19520-4 0  9996
2 48378  53.0546  55.5443 0001100  67.9222 292.1884 15.06397794252937
STARLINK-2612           
1 48379U 21038AC  25339.18778333 -.00000622  00000+0 -22849-4 0  9997
2 48379  53.0557  55.8528 0001405  75.6937 284.4208 15.06397689252920
STARLINK-2614           
1 48380U 21038AD  25338.66442135  .00005966  00000+0  41874-3 0  9991
2 48380  53.0555  58.7145 0001281  82.5236 277.5899 15.06431043252830
STARLINK-2630           
1 48381U 21038AE  25339.25044646 -.00012235  00000+0 -80451-3 0  9996
2 48381  53.0562  55.5758 0000628  23.7557 336.3461 15.06372534252930
STARLINK-2585           
1 48382U 21038AF  25339.24677163 -.00001810  00000+0 -10270-3 0  9991
2 48382  53.0547  55.5899 0001573 111.6348 248.4809 15.06381394252938
STARLINK-2598           
1 48385U 21038AJ  25338.50587926  .00030180  00000+0  20337-2 0  9993
2 48385  53.0560  58.9146 0001480  81.5059 278.6098 15.06447482254049
STARLINK-2606           
1 48386U 21038AK  25339.22324883  .00011724  00000+0  80413-3 0  9990
2 48386  53.0557  50.7051 0001224  85.8877 274.2252 15.06423043252995
STARLINK-2594           
1 48388U 21038AM  25338.51923831  .00029410  00000+0  19826-2 0  9991
2 48388  53.0559  53.8572 0001511  98.2546 261.8614 15.06446468252890
STARLINK-2586           
1 48390U 21038AP  25338.50311071  .00032326  00000+0  21766-2 0  9996
2 48390  53.0554  48.9292 0001579  86.8111 273.3058 15.06443367254175
STARLINK-2607           
1 48391U 21038AQ  25339.16290087  .00004533  00000+0  32294-3 0  9991
2 48391  53.0556  45.9661 0002563  94.6098 265.5184 15.06409501254276
STARLINK-2605           
1 48392U 21038AR  25339.15922227  .00016731  00000+0  11395-2 0  9990
2 48392  53.0565  45.9832 0001731  81.8155 278.3030 15.06395815254279
STARLINK-2574           
1 48395U 21038AU  25339.19617264  .00004545  00000+0  32384-3 0  9991
2 48395  53.0556  46.4428 0001581  83.5094 276.6075 15.06397597254272
STARLINK-2575           
1 48396U 21038AV  25339.21450681  .00002202  00000+0  16671-3 0  9992
2 48396  53.0580  45.7343 0001214  95.9943 264.1185 15.06397668254285
STARLINK-2590           
1 48397U 21038AW  25339.21083768 -.00001886  00000+0 -10779-3 0  9993
2 48397  53.0551  45.7511 0001773  85.1896 274.9296 15.06382022254289
STARLINK-2588           
1 48398U 21038AX  25339.20714145 -.00004128  00000+0 -25854-3 0  9995
2 48398  53.0554  45.7674 0000961  76.4421 283.6675 15.06381633254283
STARLINK-2587           
1 48399U 21038AY  25339.20344578  .00000812  00000+0  73427-4 0  9999
2 48399  53.0553  45.7834 0001692  78.5004 281.6175 15.06402740254278
STARLINK-2576           
1 48400U 21038AZ  25338.46993758  .00000860  00000+0  76586-4 0  9991
2 48400  53.0559  49.0769 0001185  87.3097 272.8027 15.06414982252950
STARLINK-2571           
1 48401U 21038BA  25339.17027616  .00016294  00000+0  11105-2 0  9994
2 48401  53.0552  45.9425 0001535  78.4777 281.6384 15.06392992253055
STARLINK-2593           
1 48404U 21038BD  25338.52522584  .00032075  00000+0  21596-2 0  9999
2 48404  53.0554  48.8283 0001486  84.5314 275.5844 15.06448632252969
STARLINK-2570           
1 48405U 21038BE  25339.18502370  .00012082  00000+0  82889-3 0  9993
2 48405  53.0558  45.8652 0001296 100.4617 259.6518 15.06388544253062
STARLINK-2568           
1 48406U 21038BF  25339.18132989  .00019822  00000+0  13454-2 0  9999
2 48406  53.0554  45.8841 0001551  82.6594 277.4571 15.06411664253065
STARLINK-2595           
1 48407U 21038BG  25339.33336806  .00472073  00000+0  24846-2 0  9999
2 48407  53.0302 318.9307 0010270  76.3406 351.6055 15.78805326  5921
STARLINK-2592           
1 48408U 21038BH  25338.64316586  .00007186  00000+0  50022-3 0  9991
2 48408  53.0558  48.2939 0001392  83.9607 276.1541 15.06446972252970
STARLINK-2563           
1 48410U 21038BK  25339.26842572 -.00000685  00000+0 -27093-4 0  9994
2 48410  53.0546   0.4933 0001596  82.9812 277.1359 15.06386352253713
STARLINK-2505           
1 48411U 21038BL  25339.28547069 -.00002783  00000+0 -16810-3 0  9995
2 48411  53.0559 355.4157 0001474 113.8315 246.2829 15.06387050253788
STARLINK-2581           
1 48412U 21038BM  25339.30395640  .00001113  00000+0  93615-4 0  9998
2 48412  53.0545 355.7675 0001360  98.4009 261.7134 15.06390947253784
YAOGAN-30 09A           
1 48423U 21039A   25338.81922845  .00006395  00000+0  48717-3 0  9998
2 48423  34.9955 135.2023 0003435 160.2392 199.8449 15.01434957250305
YAOGAN-30 09B           
1 48424U 21039B   25338.86295951  .00006412  00000+0  48843-3 0  9995
2 48424  34.9937 134.3923 0005446 283.1787  76.8313 15.01432504250302
YAOGAN-30 09C           
1 48425U 21039C   25338.90836676  .00006209  00000+0  47383-3 0  9998
2 48425  34.9934 133.8034 0002124 209.4688 150.5901 15.01376353250322
TIANQI-12               
1 48426U 21039D   25339.30297321  .00011883  00000+0  73028-3 0  9991
2 48426  35.0004  82.4208 0003932  25.5676 334.5228 15.09304879250886
STARLINK-2461           
1 48428U 21040A   25339.17904429  .00014607  00000+0  99735-3 0  9994
2 48428  53.0548 250.8948 0001255  86.2333 273.8799 15.06405793252315
